[{"OBJECT_NAME":"STARLINK-35310","OBJECT_ID":"2025-243G","EPOCH":"2026-03-09T17:05:49.110144","MEAN_MOTION":15.30197414,"ECCENTRICITY":8.497e-5,"INCLINATION":53.1576,"RA_OF_ASC_NODE":245.4025,"ARG_OF_PERICENTER":101.4855,"MEAN_ANOMALY":258.6242,"EPHEMERIS_TYPE":0,"CLASSIFICATION_TYPE":"U","NORAD_CAT_ID":66183,"ELEMENT_SET_NO":999,"REV_AT_EPOCH":2065,"BSTAR":0.00054925569,"MEAN_MOTION_DOT":0.00015942,"MEAN_MOTION_DDOT":0},{"OBJECT_NAME":"OBJECT E","OBJECT_ID":"2024-018E","EPOCH":"2026-02-28T11:49:38.272512","MEAN_MOTION":14.54274509,"ECCENTRICITY":0.03649823,"INCLINATION":58.9635,"RA_OF_ASC_NODE":229.5952,"ARG_OF_PERICENTER":296.8367,"MEAN_ANOMALY":59.5785,"EPHEMERIS_TYPE":0,"CLASSIFICATION_TYPE":"U","NORAD_CAT_ID":65789,"ELEMENT_SET_NO":999,"REV_AT_EPOCH":9314,"BSTAR":0.0004744631,"MEAN_MOTION_DOT":4.754e-5,"MEAN_MOTION_DDOT":0}]
